NORAD_CAT_ID,OBJECT_NAME,OBJECT_TYPE,EPOCH,MEAN_MOTION,ECCENTRICITY,INCLINATION,RA_OF_ASC_NODE,ARG_OF_PERICENTER,MEAN_ANOMALY,BSTAR,MEAN_MOTION_DOT,MEAN_MOTION_DDOT,TLE_LINE0,TLE_LINE1,TLE_LINE2,SEMIMAJOR_AXIS,PERIOD,APOGEE,PERIGEE,DECAYED
51997.0,STARLINK-3589,PAYLOAD,2023-08-28 07:00:43,15.08838158,0.0001464,53.2166,208.9013,99.94,260.1757,-7.1243e-06,-4.01e-06,0.0,0 STARLINK-3589,1 51997U 22025AT  23240.29216881 -.00000401  00000-0 -71243-5 0  9999,2 51997  53.2166 208.9013 0001464  99.9400 260.1757 15.08838158 82875,6917.886,95.438,540.764,538.738,0.0
51997.0,STARLINK-3589,PAYLOAD,2023-08-28 14:57:39,15.08835247,0.0001408,53.2164,207.4143,93.3299,266.7855,5.9307e-05,6.56e-06,0.0,0 STARLINK-3589,1 51997U 22025AT  23240.62336966  .00000656  00000-0  59307-4 0  9999,2 51997  53.2164 207.4143 0001408  93.3299 266.7855 15.08835247 81408,6917.895,95.438,540.734,538.786,0.0
51997.0,STARLINK-3589,PAYLOAD,2023-08-29 06:51:30,15.08842301,0.0001327,53.2162,204.4393,93.0425,267.0719,8.4984e-05,1.065e-05,0.0,0 STARLINK-3589,1 51997U 22025AT  23241.28576547  .00001065  00000-0  84984-4 0  9997,2 51997  53.2162 204.4393 0001327  93.0425 267.0719 15.08842301 81501,6917.873,95.437,540.656,538.82,0.0
51997.0,STARLINK-3589,PAYLOAD,2023-08-29 14:48:26,15.08836146,0.000131,53.2162,202.9519,87.5465,272.5677,-6.3676e-06,-3.89e-06,0.0,0 STARLINK-3589,1 51997U 22025AT  23241.61697272 -.00000389  00000-0 -63676-5 0  9999,2 51997  53.2162 202.9519 0001310  87.5465 272.5677 15.08836146 83076,6917.892,95.438,540.663,538.851,0.0
51997.0,STARLINK-3589,PAYLOAD,2023-08-30 14:39:13,15.08839604,0.0001264,53.2161,198.4915,89.8722,270.2415,4.1362e-05,3.7e-06,0.0,0 STARLINK-3589,1 51997U 22025AT  23242.61057168  .00000370  00000-0  41362-4 0  9999,2 51997  53.2161 198.4915 0001264  89.8722 270.2415 15.08839604 81708,6917.882,95.438,540.621,538.872,0.0
51997.0,STARLINK-3589,PAYLOAD,2023-08-31 03:22:18,15.08842257,0.0001211,53.2161,196.1126,88.4509,271.6622,6.8523e-05,8.03e-06,0.0,0 STARLINK-3589,1 51997U 22025AT  23243.14048887  .00000803  00000-0  68523-4 0  9995,2 51997  53.2161 196.1126 0001211  88.4509 271.6622 15.08842257 83308,6917.873,95.437,540.576,538.901,0.0
51997.0,STARLINK-3589,PAYLOAD,2023-08-31 20:51:32,15.08838059,0.0001248,53.2165,192.8421,87.2242,272.8893,7.9991e-05,9.85e-06,0.0,0 STARLINK-3589,1 51997U 22025AT  23243.86913088  .00000985  00000-0  79991-4 0  9990,2 51997  53.2165 192.8421 0001248  87.2242 272.8893 15.08838059 81894,6917.886,95.438,540.615,538.888,0.0
51997.0,STARLINK-3589,PAYLOAD,2023-09-01 06:23:51,15.08843512,0.0001312,53.2158,191.0576,92.8335,267.2807,5.9848e-05,6.65e-06,0.0,0 STARLINK-3589,1 51997U 22025AT  23244.26656838  .00000665  00000-0  59848-4 0  9996,2 51997  53.2158 191.0576 0001312  92.8335 267.2807 15.08843512 83474,6917.87,95.437,540.642,538.827,0.0
51997.0,STARLINK-3589,PAYLOAD,2023-09-02 06:14:38,15.08841618,0.0001423,53.2154,186.596,100.4129,259.7023,4.047e-05,3.56e-06,0.0,0 STARLINK-3589,1 51997U 22025AT  23245.26016863  .00000356  00000-0  40470-4 0  9993,2 51997  53.2154 186.5960 0001423 100.4129 259.7023 15.08841618 82106,6917.875,95.437,540.725,538.756,0.0
51997.0,STARLINK-3589,PAYLOAD,2023-09-03 02:54:39,15.08837326,0.0001262,53.2172,182.7334,91.6918,268.4218,7.1205e-05,8.45e-06,0.0,0 STARLINK-3589,1 51997U 22025AT  23246.12129174  .00000845  00000-0  71205-4 0  9992,2 51997  53.2172 182.7334 0001262  91.6918 268.4218 15.08837326 83753,6917.889,95.438,540.627,538.881,0.0
51997.0,STARLINK-3589,PAYLOAD,2023-09-03 12:26:58,15.08845939,0.0001033,53.2173,180.9503,92.2753,267.8357,-0.00012141,-2.22e-05,0.0,0 STARLINK-3589,1 51997U 22025AT  23246.51873104 -.00002220  00000-0 -12141-3 0  9998,2 51997  53.2173 180.9503 0001033  92.2753 267.8357 15.08845939 82296,6917.862,95.437,540.442,539.013,0.0
51997.0,STARLINK-3589,PAYLOAD,2023-09-04 01:10:04,15.08823959,0.0001157,53.2193,178.5744,98.7111,261.4012,6.177e-05,6.95e-06,0.0,0 STARLINK-3589,1 51997U 22025AT  23247.04866124  .00000695  00000-0  61770-4 0  9996,2 51997  53.2193 178.5744 0001157  98.7111 261.4012 15.08823959 83897,6917.929,95.439,540.595,538.994,0.0
51997.0,STARLINK-3589,PAYLOAD,2023-09-04 12:17:46,15.08829496,0.0001223,53.2179,176.4895,88.0725,272.0407,8.6564e-05,1.09e-05,0.0,0 STARLINK-3589,1 51997U 22025AT  23247.51234203  .00001090  00000-0  86564-4 0  9993,2 51997  53.2179 176.4895 0001223  88.0725 272.0407 15.08829496 82440,6917.912,95.438,540.624,538.931,0.0
51997.0,STARLINK-3589,PAYLOAD,2023-09-05 05:46:59,15.0884907,0.00012,53.2176,173.2157,81.4529,278.6599,0.00010754,1.424e-05,0.0,0 STARLINK-3589,1 51997U 22025AT  23248.24097056  .00001424  00000-0  10754-3 0  9995,2 51997  53.2176 173.2157 0001200  81.4529 278.6599 15.08849070 84072,6917.853,95.437,540.548,538.888,0.0
51997.0,STARLINK-3589,PAYLOAD,2023-09-06 00:51:38,15.08835074,0.0001326,53.2179,169.6464,76.0771,284.0369,0.00013396,1.844e-05,0.0,0 STARLINK-3589,1 51997U 22025AT  23249.03585935  .00001844  00000-0  13396-3 0  9992,2 51997  53.2179 169.6464 0001326  76.0771 284.0369 15.08835074 84191,6917.895,95.438,540.678,538.843,0.0
51997.0,STARLINK-3589,PAYLOAD,2023-09-06 04:02:24,15.08840896,0.0001374,53.218,169.0514,71.5567,288.5575,0.00010772,1.427e-05,0.0,0 STARLINK-3589,1 51997U 22025AT  23249.16833691  .00001427  00000-0  10772-3 0  9993,2 51997  53.2180 169.0514 0001374  71.5567 288.5575 15.08840896 82698,6917.878,95.437,540.693,538.792,0.0
51997.0,STARLINK-3589,PAYLOAD,2023-09-07 00:42:24,15.08845554,0.0001711,53.2178,165.1854,96.5555,263.5632,3.6724e-05,2.97e-06,0.0,0 STARLINK-3589,1 51997U 22025AT  23250.02945463  .00000297  00000-0  36724-4 0  9991,2 51997  53.2178 165.1854 0001711  96.5555 263.5632 15.08845554 84345,6917.863,95.437,540.912,538.545,0.0
51997.0,STARLINK-3589,PAYLOAD,2023-09-08 00:33:12,15.08838478,0.0001582,53.2182,160.7273,88.4784,271.639,2.805e-05,1.58e-06,0.0,0 STARLINK-3589,1 51997U 22025AT  23251.02305931  .00000158  00000-0  28050-4 0  9991,2 51997  53.2182 160.7273 0001582  88.4784 271.6390 15.08838478 84490,6917.885,95.438,540.844,538.656,0.0
51997.0,STARLINK-3589,PAYLOAD,2023-09-08 18:02:26,15.08815786,0.0001572,53.2178,157.4567,92.107,268.0102,0.00031821,4.777e-05,0.0,0 STARLINK-3589,1 51997U 22025AT  23251.75170051  .00004777  00000-0  31821-3 0  9994,2 51997  53.2178 157.4567 0001572  92.1070 268.0102 15.08815786 84604,6917.954,95.439,540.907,538.732,0.0
51997.0,STARLINK-3589,PAYLOAD,2023-09-09 00:23:59,15.08845894,0.0001377,53.2178,156.2674,89.2455,270.8695,2.0713e-05,4.2e-07,0.0,0 STARLINK-3589,1 51997U 22025AT  23252.01665597  .00000042  00000-0  20713-4 0  9998,2 51997  53.2178 156.2674 0001377  89.2455 270.8695 15.08845894 84642,6917.862,95.437,540.68,538.775,0.0
51997.0,STARLINK-3589,PAYLOAD,2023-09-09 03:34:45,15.08849301,0.0001371,53.2171,155.6711,90.249,269.866,1.1572e-05,-1.04e-06,0.0,0 STARLINK-3589,1 51997U 22025AT  23252.14913332 -.00000104  00000-0  11572-4 0  9998,2 51997  53.2171 155.6711 0001371  90.2490 269.8660 15.08849301 83146,6917.852,95.437,540.665,538.769,0.0
51997.0,STARLINK-3589,PAYLOAD,2023-09-10 01:50:09,15.0884155,0.0001381,53.2179,151.5105,86.6775,273.4375,7.7589e-05,9.47e-06,0.0,0 STARLINK-3589,1 51997U 22025AT  23253.07649877  .00000947  00000-0  77589-4 0  9995,2 51997  53.2179 151.5105 0001381  86.6775 273.4375 15.08841550 84808,6917.876,95.437,540.696,538.785,0.0
51997.0,STARLINK-3589,PAYLOAD,2023-09-10 17:44:01,15.0883565,0.0001439,53.2182,148.5383,94.8908,265.2248,1.0661e-05,-1.18e-06,0.0,0 STARLINK-3589,1 51997U 22025AT  23253.73890593 -.00000118  00000-0  10661-4 0  9990,2 51997  53.2182 148.5383 0001439  94.8908 265.2248 15.08835650 84902,6917.894,95.438,540.754,538.763,0.0
51997.0,STARLINK-3589,PAYLOAD,2023-09-11 09:37:52,15.0884546,0.0001385,53.2179,145.5621,79.2033,280.9115,1.697e-05,-1.8e-07,0.0,0 STARLINK-3589,1 51997U 22025AT  23254.40130022 -.00000018  00000-0  16970-4 0  9997,2 51997  53.2179 145.5621 0001385  79.2033 280.9115 15.08845460 85005,6917.864,95.437,540.687,538.771,0.0
51997.0,STARLINK-3589,PAYLOAD,2023-09-12 01:31:43,15.08842492,0.0001381,53.2176,142.5885,85.0809,275.0341,3.6125e-05,2.87e-06,0.0,0 STARLINK-3589,1 51997U 22025AT  23255.06370211  .00000287  00000-0  36125-4 0  9997,2 51997  53.2176 142.5885 0001381  85.0809 275.0341 15.08842492 83582,6917.873,95.437,540.693,538.782,0.0
51997.0,STARLINK-3589,PAYLOAD,2023-09-12 15:50:12,15.08838733,0.0001332,53.2174,139.9139,97.4074,262.707,2.0737e-05,4.2e-07,0.0,0 STARLINK-3589,1 51997U 22025AT  23255.65986675  .00000042  00000-0  20737-4 0  9990,2 51997  53.2174 139.9139 0001332  97.4074 262.7070 15.08838733 85193,6917.884,95.438,540.671,538.828,0.0
51997.0,STARLINK-3589,PAYLOAD,2023-09-12 20:36:21,15.08845052,0.0001397,53.2171,139.0222,95.6444,264.4707,-2.9725e-05,-7.61e-06,0.0,0 STARLINK-3589,1 51997U 22025AT  23255.85858453 -.00000761  00000-0 -29725-4 0  9990,2 51997  53.2171 139.0222 0001397  95.6444 264.4707 15.08845052 83709,6917.865,95.437,540.696,538.764,0.0
51997.0,STARLINK-3589,PAYLOAD,2023-09-12 23:47:07,15.08846594,0.0001401,53.2177,138.4253,86.3826,273.7326,9.4205e-05,1.212e-05,0.0,0 STARLINK-3589,1 51997U 22025AT  23255.99106019  .00001212  00000-0  94205-4 0  9994,2 51997  53.2177 138.4253 0001401  86.3826 273.7326 15.08846594 85242,6917.86,95.437,540.694,538.756,0.0
51997.0,STARLINK-3589,PAYLOAD,2023-09-13 22:02:31,15.08848247,0.0001314,53.2169,134.2631,92.4809,267.6333,6.3926e-05,7.3e-06,0.0,0 STARLINK-3589,1 51997U 22025AT  23256.91841758  .00000730  00000-0  63926-4 0  9993,2 51997  53.2169 134.2631 0001314  92.4809 267.6333 15.08848247 83862,6917.855,95.437,540.629,538.811,0.0
51997.0,STARLINK-3589,PAYLOAD,2023-09-14 01:13:17,15.08851504,0.0001255,53.2168,133.6669,90.0253,270.0883,6.5236e-05,7.51e-06,0.0,0 STARLINK-3589,1 51997U 22025AT  23257.05089486  .00000751  00000-0  65236-4 0  9990,2 51997  53.2168 133.6669 0001255  90.0253 270.0883 15.08851504 85406,6917.845,95.437,540.578,538.842,0.0
